NORAD_CAT_ID,OBJECT_NAME,OBJECT_TYPE,EPOCH,MEAN_MOTION,ECCENTRICITY,INCLINATION,RA_OF_ASC_NODE,ARG_OF_PERICENTER,MEAN_ANOMALY,BSTAR,MEAN_MOTION_DOT,MEAN_MOTION_DDOT,TLE_LINE0,TLE_LINE1,TLE_LINE2,SEMIMAJOR_AXIS,PERIOD,APOGEE,PERIGEE,DECAYED
52699.0,STARLINK-3987,PAYLOAD,2024-02-21 06:03:38,15.08840372,0.0001386,53.2164,254.5226,94.5552,265.5598,7.0652e-05,8.37e-06,0.0,0 STARLINK-3987,1 52699U 22053AV  24052.25252398  .00000837  00000-0  70652-4 0  9994,2 52699  53.2164 254.5226 0001386  94.5552 265.5598 15.08840372 97978,6917.879,95.438,540.703,538.785,0.0
52699.0,STARLINK-3987,PAYLOAD,2024-02-21 14:00:33,15.08837478,0.0001424,53.2171,253.0378,95.8654,264.2501,6.1576e-05,6.92e-06,0.0,0 STARLINK-3987,1 52699U 22053AV  24052.58372675  .00000692  00000-0  61576-4 0  9995,2 52699  53.2171 253.0378 0001424  95.8654 264.2501 15.08837478 98455,6917.888,95.438,540.738,538.768,0.0
52699.0,STARLINK-3987,PAYLOAD,2024-02-21 20:22:06,15.08840791,0.0001415,53.2169,251.8496,96.0637,264.0516,7.5869e-05,9.2e-06,0.0,0 STARLINK-3987,1 52699U 22053AV  24052.84868441  .00000920  00000-0  75869-4 0  9999,2 52699  53.2169 251.8496 0001415  96.0637 264.0516 15.08840791 98493,6917.878,95.438,540.722,538.764,0.0
52699.0,STARLINK-3987,PAYLOAD,2024-02-22 12:15:57,15.08838572,0.0001407,53.2167,248.8769,97.9201,262.1951,8.88e-05,1.126e-05,0.0,0 STARLINK-3987,1 52699U 22053AV  24053.51108580  .00001126  00000-0  88800-4 0  9993,2 52699  53.2167 248.8769 0001407  97.9201 262.1951 15.08838572 98168,6917.885,95.438,540.723,538.776,0.0
52699.0,STARLINK-3987,PAYLOAD,2024-02-22 20:12:53,15.08839551,0.0001396,53.2166,247.3898,96.1346,263.9806,6.6424e-05,7.69e-06,0.0,0 STARLINK-3987,1 52699U 22053AV  24053.84228603  .00000769  00000-0  66424-4 0  9998,2 52699  53.2166 247.3898 0001396  96.1346 263.9806 15.08839551 98641,6917.882,95.438,540.712,538.781,0.0
52699.0,STARLINK-3987,PAYLOAD,2024-02-23 20:03:40,15.08838245,0.0001357,53.2163,242.929,92.6394,267.4754,3.2661e-05,2.32e-06,0.0,0 STARLINK-3987,1 52699U 22053AV  24054.83588988  .00000232  00000-0  32661-4 0  9994,2 52699  53.2163 242.9290 0001357  92.6394 267.4754 15.08838245 98365,6917.886,95.438,540.69,538.812,0.0
52699.0,STARLINK-3987,PAYLOAD,2024-02-24 11:57:31,15.08842667,0.0001313,53.216,239.9549,89.5485,270.5658,9.4293e-05,1.213e-05,0.0,0 STARLINK-3987,1 52699U 22053AV  24055.49828552  .00001213  00000-0  94293-4 0  9990,2 52699  53.2160 239.9549 0001313  89.5485 270.5658 15.08842667 98892,6917.872,95.437,540.646,538.829,0.0
52699.0,STARLINK-3987,PAYLOAD,2024-02-24 18:19:04,15.08846026,0.000126,53.2156,238.7656,89.2276,270.8861,0.00011805,1.592e-05,0.0,0 STARLINK-3987,1 52699U 22053AV  24055.76324227  .00001592  00000-0  11805-3 0  9997,2 52699  53.2156 238.7656 0001260  89.2276 270.8861 15.08846026 98509,6917.862,95.437,540.599,538.855,0.0
52699.0,STARLINK-3987,PAYLOAD,2024-02-25 11:48:18,15.08843273,0.000136,53.2165,235.4963,84.5306,275.5841,7.8835e-05,9.67e-06,0.0,0 STARLINK-3987,1 52699U 22053AV  24056.49188451  .00000967  00000-0  78835-4 0  9997,2 52699  53.2165 235.4963 0001360  84.5306 275.5841 15.08843273 98610,6917.87,95.437,540.676,538.795,0.0
52699.0,STARLINK-3987,PAYLOAD,2024-02-25 18:09:51,15.08846828,0.0001322,53.2156,234.3043,96.2702,263.8441,9.3759e-05,1.205e-05,0.0,0 STARLINK-3987,1 52699U 22053AV  24056.75684046  .00001205  00000-0  93759-4 0  9995,2 52699  53.2156 234.3043 0001322  96.2702 263.8441 15.08846828 99082,6917.86,95.437,540.639,538.81,0.0
52699.0,STARLINK-3987,PAYLOAD,2024-02-26 14:49:52,15.08835631,0.0001202,53.2165,230.4409,90.4379,269.6751,-5.1001e-05,-1.099e-05,0.0,0 STARLINK-3987,1 52699U 22053AV  24057.61797271 -.00001099  00000-0 -51001-4 0  9993,2 52699  53.2165 230.4409 0001202  90.4379 269.6751 15.08835631 99211,6917.894,95.438,540.59,538.927,0.0
52699.0,STARLINK-3987,PAYLOAD,2024-02-26 18:00:39,15.08834068,0.0001296,53.2153,229.844,100.3672,259.7466,-4.7968e-05,-1.051e-05,0.0,0 STARLINK-3987,1 52699U 22053AV  24057.75045294 -.00001051  00000-0 -47968-4 0  9994,2 52699  53.2153 229.8440 0001296 100.3672 259.7466 15.08834068 98805,6917.899,95.438,540.66,538.867,0.0
52699.0,STARLINK-3987,PAYLOAD,2024-02-27 11:29:53,15.08837232,0.0001182,53.2153,226.5711,105.9351,254.1772,5.4238e-05,5.75e-06,0.0,0 STARLINK-3987,1 52699U 22053AV  24058.47908784  .00000575  00000-0  54238-4 0  9992,2 52699  53.2153 226.5711 0001182 105.9351 254.1772 15.08837232 98916,6917.889,95.438,540.572,538.936,0.0
52699.0,STARLINK-3987,PAYLOAD,2024-02-27 14:40:39,15.08846392,0.000141,53.2154,225.9785,95.2301,264.8852,9.1182e-06,-1.43e-06,0.0,0 STARLINK-3987,1 52699U 22053AV  24058.61156422 -.00000143  00000-0  91182-5 0  9994,2 52699  53.2154 225.9785 0001410  95.2301 264.8852 15.08846392 99365,6917.861,95.437,540.701,538.75,0.0
52699.0,STARLINK-3987,PAYLOAD,2024-02-27 17:51:25,15.08845593,0.0001171,53.2151,225.3853,84.3744,275.7382,0.00010029,1.309e-05,0.0,0 STARLINK-3987,1 52699U 22053AV  24058.74404249  .00001309  00000-0  10029-3 0  9994,2 52699  53.2151 225.3853 0001171  84.3744 275.7382 15.08845593 98951,6917.863,95.437,540.538,538.918,0.0
52699.0,STARLINK-3987,PAYLOAD,2024-02-28 11:20:40,15.08832984,0.0001264,53.216,222.1161,88.3636,271.7501,5.3336e-05,5.61e-06,0.0,0 STARLINK-3987,1 52699U 22053AV  24059.47269488  .00000561  00000-0  53336-4 0  9997,2 52699  53.2160 222.1161 0001264  88.3636 271.7501 15.08832984 99067,6917.902,95.438,540.641,538.892,0.0
52699.0,STARLINK-3987,PAYLOAD,2024-02-28 14:31:27,15.08831675,0.0001216,53.2157,221.5207,87.3309,272.7822,4.0687e-05,3.6e-06,0.0,0 STARLINK-3987,1 52699U 22053AV  24059.60517639  .00000360  00000-0  40687-4 0  9998,2 52699  53.2157 221.5207 0001216  87.3309 272.7822 15.08831675 99513,6917.906,95.438,540.612,538.93,0.0
52699.0,STARLINK-3987,PAYLOAD,2024-02-28 17:42:13,15.08831051,0.0001278,53.2162,220.9221,81.2473,278.8664,7.4872e-05,9.04e-06,0.0,0 STARLINK-3987,1 52699U 22053AV  24059.73765652  .00000904  00000-0  74872-4 0  9999,2 52699  53.2162 220.9221 0001278  81.2473 278.8664 15.08831051 99532,6917.908,95.438,540.657,538.889,0.0
52699.0,STARLINK-3987,PAYLOAD,2024-02-29 14:22:13,15.08844026,0.0001284,53.2166,217.0581,89.8115,270.3024,2.406e-05,9.5e-07,0.0,0 STARLINK-3987,1 52699U 22053AV  24060.59877127  .00000095  00000-0  24060-4 0  9991,2 52699  53.2166 217.0581 0001284  89.8115 270.3024 15.08844026 99663,6917.868,95.437,540.621,538.845,0.0
52699.0,STARLINK-3987,PAYLOAD,2024-02-29 17:32:59,15.0884661,0.000126,53.2169,216.4636,79.3453,280.7681,4.9592e-05,5.02e-06,0.0,0 STARLINK-3987,1 52699U 22053AV  24060.73124897  .00000502  00000-0  49592-4 0  9996,2 52699  53.2169 216.4636 0001260  79.3453 280.7681 15.08846610 99253,6917.86,95.437,540.597,538.854,0.0
52699.0,STARLINK-3987,PAYLOAD,2024-02-29 20:43:46,15.08846916,0.000128,53.2168,215.8688,89.4061,270.7078,4.9748e-05,5.04e-06,0.0,0 STARLINK-3987,1 52699U 22053AV  24060.86372817  .00000504  00000-0  49748-4 0  9992,2 52699  53.2168 215.8688 0001280  89.4061 270.7078 15.08846916 99709,6917.859,95.437,540.61,538.839,0.0
52699.0,STARLINK-3987,PAYLOAD,2024-03-01 14:13:01,15.08838551,0.0001554,53.2151,212.5915,84.3466,275.7703,8.9309e-05,1.134e-05,0.0,0 STARLINK-3987,1 52699U 22053AV  24061.59237306  .00001134  00000-0  89309-4 0  9993,2 52699  53.2151 212.5915 0001554  84.3466 275.7703 15.08838551 99813,6917.885,95.438,540.825,538.675,0.0
52699.0,STARLINK-3987,PAYLOAD,2024-03-01 15:48:24,15.08839763,0.0001541,53.2156,212.2942,82.3552,277.7615,9.7837e-05,1.269e-05,0.0,0 STARLINK-3987,1 52699U 22053AV  24061.65861209  .00001269  00000-0  97837-4 0  9999,2 52699  53.2156 212.2942 0001541  82.3552 277.7615 15.08839763 99398,6917.881,95.438,540.812,538.68,0.0
52699.0,STARLINK-3987,PAYLOAD,2024-03-02 14:03:48,15.08845323,0.0001357,53.2164,208.1336,73.6812,286.4329,-8.7687e-06,-4.28e-06,0.0,0 STARLINK-3987,1 52699U 22053AV  24062.58597280 -.00000428  00000-0 -87687-5 0  9998,2 52699  53.2164 208.1336 0001357  73.6812 286.4329 15.08845323 99966,6917.864,95.437,540.668,538.79,0.0
52699.0,STARLINK-3987,PAYLOAD,2024-03-02 17:14:34,15.08848102,0.0001405,53.217,207.5386,75.4856,284.6292,1.7379e-05,-1.1e-07,0.0,0 STARLINK-3987,1 52699U 22053AV  24062.71845007 -.00000011  00000-0  17379-4 0  9993,2 52699  53.2170 207.5386 0001405  75.4856 284.6292 15.08848102 99555,6917.856,95.437,540.693,538.749,0.0
52699.0,STARLINK-3987,PAYLOAD,2024-03-03 13:54:35,15.08837978,0.0001418,53.2171,203.6751,79.7966,280.3186,4.5856e-05,4.42e-06,0.0,0 STARLINK-3987,1 52699U 22053AV  24063.57957533  .00000442  00000-0  45856-4 0  9994,2 52699  53.2171 203.6751 0001418  79.7966 280.3186 15.08837978100111,6917.887,95.438,540.733,538.771,0.0
52699.0,STARLINK-3987,PAYLOAD,2024-03-03 15:29:58,15.08842317,0.0001472,53.2172,203.3781,77.3061,282.8096,1.0102e-05,-1.27e-06,0.0,0 STARLINK-3987,1 52699U 22053AV  24063.64581407 -.00000127  00000-0  10102-4 0  9992,2 52699  53.2172 203.3781 0001472  77.3061 282.8096 15.08842317 99692,6917.873,95.437,540.757,538.72,0.0
52699.0,STARLINK-3987,PAYLOAD,2024-03-04 13:45:20,15.08856075,0.000133,53.217,199.2119,87.2038,272.9106,7.5443e-05,9.13e-06,0.0,0 STARLINK-3987,1 52699U 22053AV  24064.57315921  .00000913  00000-0  75443-4 0  9992,2 52699  53.2170 199.2119 0001330  87.2038 272.9106 15.08856075100269,6917.831,95.437,540.616,538.776,0.0
52699.0,STARLINK-3987,PAYLOAD,2024-03-04 15:20:43,15.08856069,0.000134,53.2163,198.9144,87.1592,272.9553,0.00012036,1.629e-05,0.0,0 STARLINK-3987,1 52699U 22053AV  24064.63939764  .00001629  00000-0  12036-3 0  9999,2 52699  53.2163 198.9144 0001340  87.1592 272.9553 15.08856069 99840,6917.831,95.437,540.623,538.769,0.0
52699.0,STARLINK-3987,PAYLOAD,2024-03-05 13:36:09,15.08830528,0.0001411,53.2178,194.7513,104.1881,255.9268,3.8339e-06,-2.27e-06,0.0,0 STARLINK-3987,1 52699U 22053AV  24065.56677812 -.00000227  00000-0  38339-5 0  9995,2 52699  53.2178 194.7513 0001411 104.1881 255.9268 15.08830528100412,6917.909,95.438,540.75,538.798,0.0
